{"type": "FeatureCollection", "features": [ {"type": "Feature", "properties": {"norad_id": 40118, "name": "GAOFEN-2", "group": "resource", "lat": 42.448617372787716, "lon": 52.36954939570295, "alt_km": 618.6718319677839, "timestamp": "2025-12-26T14:28:47.346243+00:00", "meta": {"OBJECT_NAME": "GAOFEN-2", "OBJECT_ID": "2014-049A", "EPOCH": "2025-12-26T06:10:37.263072", "MEAN_MOTION": 14.80630574, "ECCENTRICITY": 0.00087058, "INCLINATION": 98.0362, "RA_OF_ASC_NODE": 59.448, "ARG_OF_PERICENTER": 75.7085, "MEAN_ANOMALY": 284.5093, "EPHEMERIS_TYPE": 0, "CLASSIFICATION_TYPE": "U", "NORAD_CAT_ID": 40118, "ELEMENT_SET_NO": 999, "REV_AT_EPOCH": 61364, "BSTAR": 0.00011577495, "MEAN_MOTION_DOT": 8.36e-06, "MEAN_MOTION_DDOT": 0}, "tle": {"line1": "1 40118U 14049A   25360.25737573  .00000836  00000+0  11577-3 0  9997", "line2": "2 40118  98.0362  59.4480 0008705  75.7085 284.5093 14.80630574613645"}}, "geometry": {"type": "Point", "coordinates": [52.36954939570295, 42.448617372787716]}}, {"type": "Feature", "properties": {"norad_id": 40143, "name": "YAOGAN-21", "group": "resource", "lat": -5.352243580421902, "lon": 43.989206769514645, "alt_km": 492.34187540537096, "timestamp": "2025-12-26T14:28:47.346254+00:00", "meta": {"OBJECT_NAME": "YAOGAN-21", "OBJECT_ID": "2014-053A", "EPOCH": "2025-12-26T06:37:24.022272", "MEAN_MOTION": 15.23810869, "ECCENTRICITY": 0.00084031, "INCLINATION": 97.1735, "RA_OF_ASC_NODE": 43, "ARG_OF_PERICENTER": 356.5749, "MEAN_ANOMALY": 3.543, "EPHEMERIS_TYPE": 0, "CLASSIFICATION_TYPE": "U", "NORAD_CAT_ID": 40143, "ELEMENT_SET_NO": 999, "REV_AT_EPOCH": 62860, "BSTAR": 0.0002682491, "MEAN_MOTION_DOT": 6.4e-05, "MEAN_MOTION_DDOT": 0}, "tle": {"line1": "1 40143U 14053A   25360.27597248  .00006400  00000+0  26825-3 0  9990", "line2": "2 40143  97.1735  43.0000 0008403 356.5749   3.5430 15.23810869628607"}}, "geometry": {"type": "Point", "coordinates": [43.989206769514645, -5.352243580421902]}}, {"type": "Feature", "properties": {"norad_id": 40275, "name": "YAOGAN-22", "group": "resource", "lat": -71.9782261402942, "lon": -71.4788332366766, "alt_km": 1205.5300543705152, "timestamp": "2025-12-26T14:28:47.346265+00:00", "meta": {"OBJECT_NAME": "YAOGAN-22", "OBJECT_ID": "2014-063A", "EPOCH": "2025-12-26T05:53:04.068672", "MEAN_MOTION": 13.15523273, "ECCENTRICITY": 0.00061072, "INCLINATION": 100.743, "RA_OF_ASC_NODE": 143.8558, "ARG_OF_PERICENTER": 215.9318, "MEAN_ANOMALY": 144.1383, "EPHEMERIS_TYPE": 0, "CLASSIFICATION_TYPE": "U", "NORAD_CAT_ID": 40275, "ELEMENT_SET_NO": 999, "REV_AT_EPOCH": 53707, "BSTAR": 4.6164242e-05, "MEAN_MOTION_DOT": -2.9e-07, "MEAN_MOTION_DDOT": 0}, "tle": {"line1": "1 40275U 14063A   25360.24518598 -.00000029  00000+0  46164-4 0  9996", "line2": "2 40275 100.7430 143.8558 0006107 215.9318 144.1383 13.15523273537070"}}, "geometry": {"type": "Point", "coordinates": [-71.4788332366766, -71.9782261402942]}}, {"type": "Feature", "properties": {"norad_id": 40298, "name": "ASNARO", "group": "resource", "lat": -18.0081067218979, "lon": -106.19782280764066, "alt_km": 513.1314702597056, "timestamp": "2025-12-26T14:28:47.346275+00:00", "meta": {"OBJECT_NAME": "ASNARO", "OBJECT_ID": "2014-070A", "EPOCH": "2025-12-26T07:17:27.208896", "MEAN_MOTION": 15.19778239, "ECCENTRICITY": 0.00056915, "INCLINATION": 97.3629, "RA_OF_ASC_NODE": 75.9191, "ARG_OF_PERICENTER": 85.7332, "MEAN_ANOMALY": 274.4553, "EPHEMERIS_TYPE": 0, "CLASSIFICATION_TYPE": "U", "NORAD_CAT_ID": 40298, "ELEMENT_SET_NO": 999, "REV_AT_EPOCH": 61775, "BSTAR": 0.00077526041, "MEAN_MOTION_DOT": 0.00016555, "MEAN_MOTION_DDOT": 0}, "tle": {"line1": "1 40298U 14070A   25360.30378714  .00016555  00000+0  77526-3 0  9995", "line2": "2 40298  97.3629  75.9191 0005691  85.7332 274.4553 15.19778239617750"}}, "geometry": {"type": "Point", "coordinates": [-106.19782280764066, -18.0081067218979]}}, {"type": "Feature", "properties": {"norad_id": 40310, "name": "YAOGAN-24", "group": "resource", "lat": 13.423574029487108, "lon": -46.27521013790186, "alt_km": 638.7135375016815, "timestamp": "2025-12-26T14:28:47.346285+00:00", "meta": {"OBJECT_NAME": "YAOGAN-24", "OBJECT_ID": "2014-072A", "EPOCH": "2025-12-26T07:13:23.552256", "MEAN_MOTION": 14.7620362, "ECCENTRICITY": 0.00152093, "INCLINATION": 98.1233, "RA_OF_ASC_NODE": 131.4673, "ARG_OF_PERICENTER": 97.6101, "MEAN_ANOMALY": 262.6836, "EPHEMERIS_TYPE": 0, "CLASSIFICATION_TYPE": "U", "NORAD_CAT_ID": 40310, "ELEMENT_SET_NO": 999, "REV_AT_EPOCH": 59821, "BSTAR": 0.00011483533, "MEAN_MOTION_DOT": 7.43e-06, "MEAN_MOTION_DDOT": 0}, "tle": {"line1": "1 40310U 14072A   25360.30096704  .00000743  00000+0  11484-3 0  9991", "line2": "2 40310  98.1233 131.4673 0015209  97.6101 262.6836 14.76203620598211"}}, "geometry": {"type": "Point", "coordinates": [-46.27521013790186, 13.423574029487108]}}, {"type": "Feature", "properties": {"norad_id": 40336, "name": "CBERS 4", "group": "resource", "lat": 39.269780183153976, "lon": 51.26551449879242, "alt_km": 769.5750907294769, "timestamp": "2025-12-26T14:28:47.346296+00:00", "meta": {"OBJECT_NAME": "CBERS 4", "OBJECT_ID": "2014-079A", "EPOCH": "2025-12-26T07:36:13.879584", "MEAN_MOTION": 14.35522988, "ECCENTRICITY": 0.00018945, "INCLINATION": 98.3285, "RA_OF_ASC_NODE": 57.8677, "ARG_OF_PERICENTER": 97.901, "MEAN_ANOMALY": 262.2392, "EPHEMERIS_TYPE": 0, "CLASSIFICATION_TYPE": "U", "NORAD_CAT_ID": 40336, "ELEMENT_SET_NO": 999, "REV_AT_EPOCH": 57915, "BSTAR": 7.1700222e-05, "MEAN_MOTION_DOT": 1.64e-06, "MEAN_MOTION_DDOT": 0}, "tle": {"line1": "1 40336U 14079A   25360.31682731  .00000164  00000+0  71700-4 0  9993", "line2": "2 40336  98.3285  57.8677 0001894  97.9010 262.2392 14.35522988579151"}}, "geometry": {"type": "Point", "coordinates": [51.26551449879242, 39.269780183153976]}}, {"type": "Feature", "properties": {"norad_id": 40362, "name": "YAOGAN-26", "group": "resource", "lat": 43.04041502329144, "lon": -172.56266395916154, "alt_km": 445.7477755680193, "timestamp": "2025-12-26T14:28:47.346306+00:00", "meta": {"OBJECT_NAME": "YAOGAN-26", "OBJECT_ID": "2014-088A", "EPOCH": "2025-12-26T06:05:27.030912", "MEAN_MOTION": 15.39786114, "ECCENTRICITY": 0.00042628, "INCLINATION": 97.065, "RA_OF_ASC_NODE": 0.4491, "ARG_OF_PERICENTER": 346.8747, "MEAN_ANOMALY": 13.2388, "EPHEMERIS_TYPE": 0, "CLASSIFICATION_TYPE": "U", "NORAD_CAT_ID": 40362, "ELEMENT_SET_NO": 999, "REV_AT_EPOCH": 61102, "BSTAR": 0.00071679752, "MEAN_MOTION_DOT": 0.00028395, "MEAN_MOTION_DDOT": 0}, "tle": {"line1": "1 40362U 14088A   25360.25378508  .00028395  00000+0  71680-3 0  9991", "line2": "2 40362  97.0650   0.4491 0004262 346.8747  13.2388 15.39786114611025"}}, "geometry": {"type": "Point", "coordinates": [-172.56266395916154, 43.04041502329144]}}, {"type": "Feature", "properties": {"norad_id": 40376, "name": "SMAP", "group": "resource", "lat": -9.708337231630436, "lon": -176.273867662523, "alt_km": 686.6304472885868, "timestamp": "2025-12-26T14:28:47.346317+00:00", "meta": {"OBJECT_NAME": "SMAP", "OBJECT_ID": "2015-003A", "EPOCH": "2025-12-26T07:03:05.996160", "MEAN_MOTION": 14.6336149, "ECCENTRICITY": 0.00012377, "INCLINATION": 98.1291, "RA_OF_ASC_NODE": 4.8223, "ARG_OF_PERICENTER": 92.3731, "MEAN_ANOMALY": 267.7613, "EPHEMERIS_TYPE": 0, "CLASSIFICATION_TYPE": "U", "NORAD_CAT_ID": 40376, "ELEMENT_SET_NO": 999, "REV_AT_EPOCH": 58233, "BSTAR": 0.00012049136, "MEAN_MOTION_DOT": 5.76e-06, "MEAN_MOTION_DDOT": 0}, "tle": {"line1": "1 40376U 15003A   25360.29381940  .00000576  00000+0  12049-3 0  9997", "line2": "2 40376  98.1291   4.8223 0001237  92.3731 267.7613 14.63361490582339"}}, "geometry": {"type": "Point", "coordinates": [-176.273867662523, -9.708337231630436]}}, {"type": "Feature", "properties": {"norad_id": 40536, "name": "KOMPSAT-3A", "group": "resource", "lat": -49.865206372302474, "lon": -15.067657773412837, "alt_km": 443.1569745668867, "timestamp": "2025-12-26T14:28:47.346327+00:00", "meta": {"OBJECT_NAME": "KOMPSAT-3A", "OBJECT_ID": "2015-014A", "EPOCH": "2025-12-26T06:55:24.201120", "MEAN_MOTION": 15.44445849, "ECCENTRICITY": 0.00056418, "INCLINATION": 97.6808, "RA_OF_ASC_NODE": 335.3886, "ARG_OF_PERICENTER": 98.1238, "MEAN_ANOMALY": 262.0649, "EPHEMERIS_TYPE": 0, "CLASSIFICATION_TYPE": "U", "NORAD_CAT_ID": 40536, "ELEMENT_SET_NO": 999, "REV_AT_EPOCH": 59504, "BSTAR": 0.00043777135, "MEAN_MOTION_DOT": 0.00020198, "MEAN_MOTION_DDOT": 0}, "tle": {"line1": "1 40536U 15014A   25360.28847455  .00020198  00000+0  43777-3 0  9998", "line2": "2 40536  97.6808 335.3886 0005641  98.1238 262.0649 15.44445849595041"}}, "geometry": {"type": "Point", "coordinates": [-15.067657773412837, -49.865206372302474]}}, {"type": "Feature", "properties": {"norad_id": 40697, "name": "SENTINEL-2A", "group": "resource", "lat": -55.701129613375315, "lon": -119.83405255403157, "alt_km": 796.6856411183298, "timestamp": "2025-12-26T14:28:47.346338+00:00", "meta": {"OBJECT_NAME": "SENTINEL-2A", "OBJECT_ID": "2015-028A", "EPOCH": "2025-12-26T06:39:50.874624", "MEAN_MOTION": 14.3081042, "ECCENTRICITY": 0.00010423, "INCLINATION": 98.5725, "RA_OF_ASC_NODE": 72.6206, "ARG_OF_PERICENTER": 88.6594, "MEAN_ANOMALY": 271.4708, "EPHEMERIS_TYPE": 0, "CLASSIFICATION_TYPE": "U", "NORAD_CAT_ID": 40697, "ELEMENT_SET_NO": 999, "REV_AT_EPOCH": 54900, "BSTAR": 1.9676147e-05, "MEAN_MOTION_DOT": 8e-08, "MEAN_MOTION_DDOT": 0}, "tle": {"line1": "1 40697U 15028A   25360.27767216  .00000008  00000+0  19676-4 0  9996", "line2": "2 40697  98.5725  72.6206 0001042  88.6594 271.4708 14.30810420549004"}}, "geometry": {"type": "Point", "coordinates": [-119.83405255403157, -55.701129613375315]}}]}